GRBBETA                 
1 60237U 24128C   26068.70717138  .00006748  00000+0  46404-3 0  9996
2 60237  61.9904 205.0764 0051339 114.1677 246.4795 15.05794613 91289
STARLINK-35913          
1 67004U 25293B   26068.79509343  .00002750  00000+0  23817-3 0  9997
2 67004  70.0010  94.1909 0003611 271.7545  88.3200 14.98325516 14900
